EUTELSAT 21B            
1 38992U 12062B   25242.86294701  .00000134  00000+0  00000+0 0  9990
2 38992   0.0709   8.3868 0002530 157.2105 145.9360  1.00272232 46910
EUTELSAT 70B            
1 39020U 12069A   25242.84937288 -.00000039  00000+0  00000+0 0  9997
2 39020   0.0671  10.2096 0003568 152.7958 192.5365  1.00272007 46591
EUTELSAT 117 WEST A     
1 39122U 13012A   25242.64589745 -.00000009  00000+0  00000+0 0  9995
2 39122   0.0634 283.7517 0002943 243.0370 288.0139  1.00270980 45526
EUTELSAT 7B             
1 39163U 13022A   25242.81319531  .00000052  00000+0  00000+0 0  9991
2 39163   0.0694 338.9912 0001602  77.1347 222.8607  1.00271582 45042
EXPRESS-AT1             
1 39612U 14010A   25242.88378118  .00000082  00000+0  00000+0 0  9994
2 39612   0.0270 256.0824 0001060 190.3477 267.0515  1.00272179 41906
EXPRESS-AT2             
1 39613U 14010B   25242.91086907 -.00000277  00000+0  00000+0 0  9998
2 39613   0.0142 172.3606 0000112 255.9617  18.7788  1.00271104 41588
EUTELSAT 3B             
1 39773U 14030A   25242.92392029  .00000024  00000+0  00000+0 0  9992
2 39773   0.0659   8.5584 0004260 148.6823 157.8125  1.00273007 41155
EUTELSAT 115 WEST B     
1 40425U 15010B   25242.64624412 -.00000021  00000+0  00000+0 0  9998
2 40425   0.0044 320.8699 0000125 285.1112 210.8456  1.00272991 38480
